{
  "norad_id": 49419,
  "name": "STARLINK-3120",
  "history": [
    {
      "epoch": "2026-03-28T13:43:37.011360Z",
      "apogee_km": 540.612465563393,
      "perigee_km": 538.8262750485792,
      "latitude_deg": 3.627920002107757e-05,
      "longitude_deg": 112.46073147127228,
      "height_km": 540.5426956636876,
      "semi_major_axis_km": 6917.856370305985,
      "eccentricity": 0.0001291,
      "inclination_deg": 53.216,
      "raan_deg": 144.3554,
      "arg_perigee_deg": 85.3545,
      "mean_anomaly_deg": 274.7595,
      "mean_motion_rev_day": 15.08847858
    }
  ]
}